LOPEN                   
1 60473U 24149F   26114.94075086  .00013109  00000+0  35125-3 0  9995
2 60473  97.3776 197.9571 0002866  98.7598 261.3972 15.38125182 94074
ROCK                    
1 60474U 24149G   26114.73223125  .00012540  00000+0  33610-3 0  9997
2 60474  97.3769 197.7655 0003140  94.0343 266.1261 15.38126995 94045
CONNECTA IOT-3          
1 60475U 24149H   26114.71324088  .00003257  00000+0  14095-3 0  9997
2 60475  97.3742 191.6913 0004712  95.2589 264.9186 15.23120493 93668
QUBE                    
1 60476U 24149J   26114.77288982  .00020742  00000+0  44588-3 0  9994
2 60476  97.3774 200.2813 0003054  87.7037 272.4562 15.44688732 94214
WREN-1                  
1 60478U 24149L   26114.67481058  .00016430  00000+0  42093-3 0  9992
2 60478  97.3763 198.3133 0005757 100.4359 259.7535 15.39441240 94086
TOMORROW-S1             
1 60479U 24149M   26114.84975841  .00006343  00000+0  20809-3 0  9993
2 60479  97.3750 195.5209 0004271  87.8994 272.2737 15.31954417 93922
FLOCK 4BE-18            
1 60480U 24149N   26114.76808783  .00015214  00000+0  38176-3 0  9999
2 60480  97.3728 198.0113 0005140  98.3804 261.8025 15.40098054 94082
FLOCK 4BE-7             
1 60481U 24149P   26114.77885790  .00018821  00000+0  50350-3 0  9999
2 60481  97.3756 197.4845 0004379 103.0361 257.1374 15.38087475 94036
FLOCK 4BE-16            
1 60483U 24149R   26114.76901452  .05223111  24470-5  15808-2 0  9990
2 60483  97.3530 203.9144 0012702 257.0065 102.9810 16.26722261 94469
FLOCK 4BE-26            
1 60484U 24149S   26114.47859682  .00113060  00000+0  16864-2 0  9992
2 60484  97.3678 198.3415 0003574 145.3330 214.8157 15.54674426 94086
TOMORROW-S2             
1 60485U 24149T   26114.94617987  .00006995  00000+0  22915-3 0  9998
2 60485  97.3818 196.0563 0004567 102.6709 257.5044 15.31960897 93938
FLOCK 4BE-36            
1 60486U 24149U   26114.70538140  .00014675  00000+0  35754-3 0  9995
2 60486  97.3739 198.5640 0005230 105.7478 254.4346 15.41002788 94118
FLOCK 4BE-25            
1 60487U 24149V   26114.80629333  .00010197  00000+0  28012-3 0  9996
2 60487  97.3796 197.6529 0003820 102.1509 258.0164 15.37414754 94031
FLOCK 4BE-31            
1 60488U 24149W   26114.77723029  .00017074  00000+0  40176-3 0  9996
2 60488  97.3796 199.3577 0004112 108.3633 251.8061 15.42026990 94141
FLOCK 4BE-20            
1 60489U 24149X   26114.80775909  .00010879  00000+0  30627-3 0  9991
2 60489  97.3696 196.6689 0005316 103.8498 256.3338 15.36627031 94010
FLOCK 4BE-23            
1 60490U 24149Y   26114.78527488  .00011380  00000+0  32395-3 0  9999
2 60490  97.3779 196.9929 0005175 109.8205 250.3597 15.36268452 93994
FLOCK 4BE-15            
1 60491U 24149Z   26114.77420784  .00085845  00000+0  16033-2 0  9997
2 60491  97.3707 198.6157 0005686 175.8348 184.2951 15.48441336 94139
FLOCK 4BE-17            
1 60492U 24149AA  26114.77404384  .00014053  00000+0  37547-3 0  9993
2 60492  97.3775 197.7869 0004506 102.4601 257.7149 15.38190763 94042
NUSAT-50 (NANCY ROMAN)  
1 60493U 24149AB  26114.77888572  .00007536  00000+0  27094-3 0  9993
2 60493  97.3788 196.4451 0004105  50.6604 309.4999 15.28906790 93964
FLOCK 4BE-22            
1 60494U 24149AC  26114.67242945  .00013556  00000+0  34721-3 0  9995
2 60494  97.3730 197.7956 0005122 108.1078 252.0726 15.39497508 94067
FLOCK 4BE-34            
1 60495U 24149AD  26114.95066206  .00014167  00000+0  36169-3 0  9998
2 60495  97.3777 198.8623 0005441 114.4674 245.7140 15.39584958 94131
TYCHE                   
1 60496U 24149AE  26114.95080493  .00003884  00000+0  15474-3 0  9993
2 60496  97.3757 193.4824 0004685 105.7463 254.4292 15.25803855 93782
FLOCK 4BE-32            
1 60497U 24149AF  26114.75395728  .00013423  00000+0  33472-3 0  9990
2 60497  97.3720 198.1807 0005380 112.7971 247.3844 15.40317094 94104
NUSAT-48 (HENRIETTA LE*)
1 60498U 24149AG  26114.78746172  .00010756  00000+0  37408-3 0  9996
2 60498  97.3901 196.5646 0005484 104.3113 255.8736 15.29879870 93979
FLOCK 4BE-30            
1 60499U 24149AH  26114.94977166  .00078675  00000+0  16273-2 0  9994
2 60499  97.3786 199.1652 0003819 170.8440 189.2880 15.45510806 93528
NUSAT-49 (KLARA DAN VO*)
1 60500U 24149AJ  26114.76980106  .00007769  00000+0  27076-3 0  9995
2 60500  97.3778 196.4186 0004294 114.4337 245.7352 15.29914805 93960
FLOCK 4BE-11            
1 60501U 24149AK  26114.77783485  .00015563  00000+0  37697-3 0  9999
2 60501  97.3702 198.3813 0005380 112.2186 247.9632 15.41165198 94122
FLOCK 4BE-33            
1 60502U 24149AL  26114.75645736  .00384177  56123-4  13699-2 0  9991
2 60502  97.3580 202.1191 0004040 211.9504 148.1524 15.88860523 94366
YAM-7                   
1 60504U 24149AN  26114.67407035  .00005959  00000+0  20118-3 0  9993
2 60504  97.3785 195.1711 0004993 117.2138 242.9613 15.31050758 93867
FLOCK 4BE-24            
1 60505U 24149AP  26114.76372319  .00016351  00000+0  39738-3 0  9996
2 60505  97.3717 198.6126 0005512 120.8276 239.3514 15.41052156 94138
LUR-1                   
1 60506U 24149AQ  26114.80151853  .00005675  00000+0  20176-3 0  9993
2 60506  97.3744 194.0440 0005543 125.3399 234.8360 15.29382177 93816
TANAGER-1               
1 60507U 24149AR  26114.77932119  .00010585  00000+0  23212-3 0  9992
2 60507  97.3470 208.7519 0007521 133.3937 226.7939 15.44229186 94795
EAGLEEYE                
1 60508U 24149AS  26114.76767109  .00057894  00000+0  64181-3 0  9991
2 60508  97.3723 205.5189 0003416 115.9871 244.1739 15.62782129 94576
FLOCK 4BE-29            
1 60509U 24149AT  26114.68610890  .00015244  00000+0  35515-3 0  9999
2 60509  97.3803 199.8286 0004313 125.2178 234.9474 15.42349808 94169
TRANSPORTER-11 OBJECT AU
1 60510U 24149AU  26114.75752296  .00012061  00000+0  31739-3 0  9994
2 60510  97.3727 198.1146 0005191 117.9775 242.1997 15.38694765 94092
FLOCK 4BE-2             
1 60511U 24149AV  26114.79597400  .00039649  00000+0  77278-3 0  9992
2 60511  97.3817 200.8016 0004911 126.4799 233.6904 15.47419165 94238
FLOCK 4BE-13            
1 60512U 24149AW  26114.78418609  .00012512  00000+0  31124-3 0  9995
2 60512  97.3716 198.7018 0005605 105.3764 254.8102 15.40406328 94148
FLOCK 4BE-27            
1 60513U 24149AX  26114.96464898  .00008505  00000+0  26494-3 0  9998
2 60513  97.3823 196.8288 0005539 125.2702 234.9059 15.33502345 93984
FLOCK 4BE-9             
1 60514U 24149AY  26114.80765175  .00012632  00000+0  32738-3 0  9998
2 60514  97.3788 198.6296 0004483 126.7716 233.3942 15.39156275 94104
FLOCK 4BE-6             
1 60516U 24149BA  26114.66663036  .00012770  00000+0  34251-3 0  9992
2 60516  97.3786 197.9408 0005239 125.8870 234.2862 15.38090656 94045
FLOCK 4BE-14            
1 60517U 24149BB  26114.76111360  .00013310  00000+0  34296-3 0  9992
2 60517  97.3695 198.1320 0006214 125.4220 234.7607 15.39311571 94102
FLOCK 4BE-1             
1 60518U 24149BC  26114.76547538  .00013912  00000+0  34137-3 0  9995
2 60518  97.3775 199.2285 0005787 125.8227 234.3558 15.40794884 94148
FLOCK 4BE-28            
1 60519U 24149BD  26114.79314745  .00016140  00000+0  36772-3 0  9994
2 60519  97.3743 199.8199 0005832 121.6374 238.5443 15.42999343 94207
IPERDRONE.0             
1 60520U 24149BE  26114.78547935  .00051280  00000+0  63783-3 0  9990
2 60520  97.3774 205.6619 0003371 107.7776 252.3848 15.59806501 94577
TRANSPORTER-11 OBJECT BF
1 60521U 24149BF  26114.77065600  .00094438  00000+0  83564-3 0  9995
2 60521  97.3774 207.3500 0002662 119.4135 240.7392 15.68333284 94676
CONNECTA IOT-2          
1 60522U 24149BG  26114.79012852  .00003675  00000+0  15691-3 0  9998
2 60522  97.3843 193.7626 0007650 142.4446 217.7326 15.23493716 93762
PTD-R (TYVAK-0127)      
1 60523U 24149BH  26114.83385770  .00128372  00000+0  62325-3 0  9994
2 60523  97.3743 211.0459 0003699 159.1580 200.9840 15.82093559 94945
CONNECTA IOT-4          
1 60524U 24149BJ  26114.77042997  .00014996  00000+0  37528-3 0  9992
2 60524  97.3799 198.5915 0006806 121.3695 238.8218 15.40172159 94109
ORESAT0.5               
1 60525U 24149BK  26114.78212084  .00016424  00000+0  37344-3 0  9994
2 60525  97.3719 200.0502 0006975 112.2534 247.9454 15.43048680 94232
DEIMOS                  
1 60526U 24149BL  26114.78645668  .00015734  00000+0  36703-3 0  9994
2 60526  97.3775 200.2180 0007021 117.2727 242.9237 15.42288167 94218
CUAVA-2                 
1 60527U 24149BM  26114.77535865  .00010529  00000+0  31355-3 0  9996
2 60527  97.3726 196.2555 0008354 120.8688 239.3378 15.34849037 93979
ERNST                   
1 60528U 24149BN  26114.77074657  .00011964  00000+0  32441-3 0  9995
2 60528  97.3807 198.1500 0007643 123.2531 236.9447 15.37754736 94060
TORO                    
1 60530U 24149BQ  26114.67519638  .00001550  00000+0  14252-3 0  9990
2 60530  97.6798 190.3461 0001589 107.6563 252.4832 14.96217422 91955
HYPSO-2                 
1 60531U 24149BR  26114.78632624  .00001210  00000+0  10599-3 0  9997
2 60531  97.6841 191.8332 0001700 103.3389 256.8023 14.98528312 92059
LEMU NGE                
1 60532U 24149BS  26114.76829742  .00001799  00000+0  17089-3 0  9998
2 60532  97.6856 190.8129 0001808 133.6221 226.5149 14.94726205 91979
LEMUR-2-STELLA          
1 60533U 24149BT  26114.91176326  .00010572  00000+0  64327-3 0  9995
2 60533  97.6728 197.1854 0001428 135.5693 224.5651 15.10613621 92451
SATELIOT_2              
1 60534U 24149BU  26114.72695725  .00001040  00000+0  97388-4 0  9998
2 60534  97.6840 190.6627 0000933  97.7480 262.3847 14.96155690 91979
NIGHTJAR                
1 60535U 24149BV  26114.78501841  .00001585  00000+0  13665-3 0  9999
2 60535  97.6861 192.2454 0001048  64.3440 295.7891 14.98711132134870
LEMUR-2-MARHISYAM       
1 60536U 24149BW  26114.80743574  .00007907  00000+0  48885-3 0  9990
2 60536  97.6875 197.4733 0000507 343.5712  16.5501 15.10118106 92424
